[{"OBJECT_NAME":"STARLINK-6073","OBJECT_ID":"2023-078AS","EPOCH":"2026-03-09T22:17:41.084736","MEAN_MOTION":14.99848742,"ECCENTRICITY":0.00116938,"INCLINATION":70.0028,"RA_OF_ASC_NODE":323.68,"ARG_OF_PERICENTER":295.6335,"MEAN_ANOMALY":64.3616,"EPHEMERIS_TYPE":0,"CLASSIFICATION_TYPE":"U","NORAD_CAT_ID":56807,"ELEMENT_SET_NO":999,"REV_AT_EPOCH":15321,"BSTAR":0.083955931,"MEAN_MOTION_DOT":0.01119436,"MEAN_MOTION_DDOT":0},{"OBJECT_NAME":"ROADS 2","OBJECT_ID":"2025-135X","EPOCH":"2026-03-09T20:33:50.973408","MEAN_MOTION":15.22472145,"ECCENTRICITY":0.0002782,"INCLINATION":97.4653,"RA_OF_ASC_NODE":185.5116,"ARG_OF_PERICENTER":96.6927,"MEAN_ANOMALY":263.4626,"EPHEMERIS_TYPE":0,"CLASSIFICATION_TYPE":"U","NORAD_CAT_ID":64549,"ELEMENT_SET_NO":999,"REV_AT_EPOCH":3979,"BSTAR":0.00041430645,"MEAN_MOTION_DOT":9.527e-5,"MEAN_MOTION_DDOT":0}]
